{"type": "FeatureCollection", "features": [ {"type": "Feature", "properties": {"norad_id": 35593, "name": "COSMOS 2251 DEB", "group": "cosmos-2251-debris", "lat": -25.267890945853374, "lon": -78.24614002113567, "alt_km": 751.5869332208958, "timestamp": "2025-12-12T03:50:52.814704+00:00", "meta": {"OBJECT_NAME": "COSMOS 2251 DEB", "OBJECT_ID": "1993-036AML", "EPOCH": "2025-12-11T12:48:43.495200", "MEAN_MOTION": 14.25588674, "ECCENTRICITY": 0.01052301, "INCLINATION": 74.0859, "RA_OF_ASC_NODE": 290.6204, "ARG_OF_PERICENTER": 297.3728, "MEAN_ANOMALY": 61.6741, "EPHEMERIS_TYPE": 0, "CLASSIFICATION_TYPE": "U", "NORAD_CAT_ID": 35593, "ELEMENT_SET_NO": 999, "REV_AT_EPOCH": 85048, "BSTAR": 0.0017278074, "MEAN_MOTION_DOT": 4.311e-05, "MEAN_MOTION_DDOT": 0}, "tle": {"line1": "1 35593U 93036AML 25345.53383675  .00004311  00000+0  17278-2 0  9990", "line2": "2 35593  74.0859 290.6204 0105230 297.3728  61.6741 14.25588674850482"}}, "geometry": {"type": "Point", "coordinates": [-78.24614002113567, -25.267890945853374]}}, {"type": "Feature", "properties": {"norad_id": 35594, "name": "COSMOS 2251 DEB", "group": "cosmos-2251-debris", "lat": 32.69879139069136, "lon": -83.0414410282999, "alt_km": 595.9872473901596, "timestamp": "2025-12-12T03:50:52.814715+00:00", "meta": {"OBJECT_NAME": "COSMOS 2251 DEB", "OBJECT_ID": "1993-036AMM", "EPOCH": "2025-12-11T07:49:43.768128", "MEAN_MOTION": 14.87869065, "ECCENTRICITY": 0.00302327, "INCLINATION": 73.8067, "RA_OF_ASC_NODE": 109.3962, "ARG_OF_PERICENTER": 220.7507, "MEAN_ANOMALY": 139.1411, "EPHEMERIS_TYPE": 0, "CLASSIFICATION_TYPE": "U", "NORAD_CAT_ID": 35594, "ELEMENT_SET_NO": 999, "REV_AT_EPOCH": 88164, "BSTAR": 0.003372362, "MEAN_MOTION_DOT": 0.00031222, "MEAN_MOTION_DDOT": 0}, "tle": {"line1": "1 35594U 93036AMM 25345.32620102  .00031222  00000+0  33724-2 0  9992", "line2": "2 35594  73.8067 109.3962 0030232 220.7507 139.1411 14.87869065881643"}}, "geometry": {"type": "Point", "coordinates": [-83.0414410282999, 32.69879139069136]}}, {"type": "Feature", "properties": {"norad_id": 35602, "name": "COSMOS 2251 DEB", "group": "cosmos-2251-debris", "lat": 21.844963420399342, "lon": -3.1494368708684006, "alt_km": 462.1164523898278, "timestamp": "2025-12-12T03:50:52.814725+00:00", "meta": {"OBJECT_NAME": "COSMOS 2251 DEB", "OBJECT_ID": "1993-036AMV", "EPOCH": "2025-12-11T13:12:57.390336", "MEAN_MOTION": 15.35009542, "ECCENTRICITY": 0.00900671, "INCLINATION": 73.994, "RA_OF_ASC_NODE": 184.7692, "ARG_OF_PERICENTER": 250.7895, "MEAN_ANOMALY": 139.7524, "EPHEMERIS_TYPE": 0, "CLASSIFICATION_TYPE": "U", "NORAD_CAT_ID": 35602, "ELEMENT_SET_NO": 999, "REV_AT_EPOCH": 90073, "BSTAR": 0.00058363108, "MEAN_MOTION_DOT": 0.00022676, "MEAN_MOTION_DDOT": 0}, "tle": {"line1": "1 35602U 93036AMV 25345.55066424  .00022676  00000+0  58363-3 0  9998", "line2": "2 35602  73.9940 184.7692 0090067 250.7895 139.7524 15.35009542900739"}}, "geometry": {"type": "Point", "coordinates": [-3.1494368708684006, 21.844963420399342]}}, {"type": "Feature", "properties": {"norad_id": 35605, "name": "COSMOS 2251 DEB", "group": "cosmos-2251-debris", "lat": -24.68803303564759, "lon": 165.52341700853643, "alt_km": 463.5469684129275, "timestamp": "2025-12-12T03:50:52.814735+00:00", "meta": {"OBJECT_NAME": "COSMOS 2251 DEB", "OBJECT_ID": "1993-036AMY", "EPOCH": "2025-12-08T17:29:07.135584", "MEAN_MOTION": 15.31836492, "ECCENTRICITY": 0.00282066, "INCLINATION": 73.8723, "RA_OF_ASC_NODE": 345.2823, "ARG_OF_PERICENTER": 280.9051, "MEAN_ANOMALY": 78.8978, "EPHEMERIS_TYPE": 0, "CLASSIFICATION_TYPE": "U", "NORAD_CAT_ID": 35605, "ELEMENT_SET_NO": 999, "REV_AT_EPOCH": 65910, "BSTAR": 0.0070125726, "MEAN_MOTION_DOT": 0.002247, "MEAN_MOTION_DDOT": 0}, "tle": {"line1": "1 35605U 93036AMY 25342.72855481  .00224700  00000+0  70126-2 0  9998", "line2": "2 35605  73.8723 345.2823 0028206 280.9051  78.8978 15.31836492659101"}}, "geometry": {"type": "Point", "coordinates": [165.52341700853643, -24.68803303564759]}}, {"type": "Feature", "properties": {"norad_id": 35606, "name": "COSMOS 2251 DEB", "group": "cosmos-2251-debris", "lat": -63.49694119122468, "lon": -23.90858421204478, "alt_km": 1001.7823052779413, "timestamp": "2025-12-12T03:50:52.814745+00:00", "meta": {"OBJECT_NAME": "COSMOS 2251 DEB", "OBJECT_ID": "1993-036AMZ", "EPOCH": "2025-12-09T08:10:26.094720", "MEAN_MOTION": 13.41205491, "ECCENTRICITY": 0.04577322, "INCLINATION": 73.8107, "RA_OF_ASC_NODE": 16.2149, "ARG_OF_PERICENTER": 222.4362, "MEAN_ANOMALY": 134.0496, "EPHEMERIS_TYPE": 0, "CLASSIFICATION_TYPE": "U", "NORAD_CAT_ID": 35606, "ELEMENT_SET_NO": 999, "REV_AT_EPOCH": 60994, "BSTAR": 0.0014727579, "MEAN_MOTION_DOT": 1.492e-05, "MEAN_MOTION_DDOT": 0}, "tle": {"line1": "1 35606U 93036AMZ 25343.34057980  .00001492  00000+0  14728-2 0  9993", "line2": "2 35606  73.8107  16.2149 0457732 222.4362 134.0496 13.41205491609945"}}, "geometry": {"type": "Point", "coordinates": [-23.90858421204478, -63.49694119122468]}}, {"type": "Feature", "properties": {"norad_id": 35611, "name": "COSMOS 2251 DEB", "group": "cosmos-2251-debris", "lat": 41.674653350816854, "lon": -14.347696332315234, "alt_km": 655.3582962756855, "timestamp": "2025-12-12T03:50:52.814755+00:00", "meta": {"OBJECT_NAME": "COSMOS 2251 DEB", "OBJECT_ID": "1993-036ANE", "EPOCH": "2025-12-10T21:53:07.871424", "MEAN_MOTION": 14.72760794, "ECCENTRICITY": 0.0021652, "INCLINATION": 74.0199, "RA_OF_ASC_NODE": 182.8637, "ARG_OF_PERICENTER": 256.2184, "MEAN_ANOMALY": 103.6579, "EPHEMERIS_TYPE": 0, "CLASSIFICATION_TYPE": "U", "NORAD_CAT_ID": 35611, "ELEMENT_SET_NO": 999, "REV_AT_EPOCH": 87263, "BSTAR": 0.0032758, "MEAN_MOTION_DOT": 0.00021038, "MEAN_MOTION_DDOT": 0}, "tle": {"line1": "1 35611U 93036ANE 25344.91189666  .00021038  00000+0  32758-2 0  9991", "line2": "2 35611  74.0199 182.8637 0021652 256.2184 103.6579 14.72760794872631"}}, "geometry": {"type": "Point", "coordinates": [-14.347696332315234, 41.674653350816854]}}, {"type": "Feature", "properties": {"norad_id": 35614, "name": "COSMOS 2251 DEB", "group": "cosmos-2251-debris", "lat": -73.92784064792336, "lon": -124.43102601897527, "alt_km": 673.4062527014985, "timestamp": "2025-12-12T03:50:52.814765+00:00", "meta": {"OBJECT_NAME": "COSMOS 2251 DEB", "OBJECT_ID": "1993-036ANH", "EPOCH": "2025-12-11T15:10:18.622272", "MEAN_MOTION": 14.66997586, "ECCENTRICITY": 0.00758361, "INCLINATION": 73.9591, "RA_OF_ASC_NODE": 329.6101, "ARG_OF_PERICENTER": 184.3754, "MEAN_ANOMALY": 175.6763, "EPHEMERIS_TYPE": 0, "CLASSIFICATION_TYPE": "U", "NORAD_CAT_ID": 35614, "ELEMENT_SET_NO": 999, "REV_AT_EPOCH": 87713, "BSTAR": 0.001259568, "MEAN_MOTION_DOT": 7.344e-05, "MEAN_MOTION_DDOT": 0}, "tle": {"line1": "1 35614U 93036ANH 25345.63215998  .00007344  00000+0  12596-2 0  9994", "line2": "2 35614  73.9591 329.6101 0075836 184.3754 175.6763 14.66997586877130"}}, "geometry": {"type": "Point", "coordinates": [-124.43102601897527, -73.92784064792336]}}, {"type": "Feature", "properties": {"norad_id": 35645, "name": "COSMOS 2251 DEB", "group": "cosmos-2251-debris", "lat": 31.52369873194297, "lon": 98.9789466420088, "alt_km": 779.214490909153, "timestamp": "2025-12-12T03:50:52.814775+00:00", "meta": {"OBJECT_NAME": "COSMOS 2251 DEB", "OBJECT_ID": "1993-036ANL", "EPOCH": "2025-12-10T23:27:31.601376", "MEAN_MOTION": 14.45538562, "ECCENTRICITY": 0.00695586, "INCLINATION": 73.9638, "RA_OF_ASC_NODE": 91.0323, "ARG_OF_PERICENTER": 249.0012, "MEAN_ANOMALY": 110.3695, "EPHEMERIS_TYPE": 0, "CLASSIFICATION_TYPE": "U", "NORAD_CAT_ID": 35645, "ELEMENT_SET_NO": 999, "REV_AT_EPOCH": 86746, "BSTAR": 0.0035659566, "MEAN_MOTION_DOT": 0.00012959, "MEAN_MOTION_DDOT": 0}, "tle": {"line1": "1 35645U 93036ANL 25344.97744909  .00012959  00000+0  35660-2 0  9998", "line2": "2 35645  73.9638  91.0323 0069558 249.0012 110.3695 14.45538562867469"}}, "geometry": {"type": "Point", "coordinates": [98.9789466420088, 31.52369873194297]}}, {"type": "Feature", "properties": {"norad_id": 35646, "name": "COSMOS 2251 DEB", "group": "cosmos-2251-debris", "lat": 4.903535360592659, "lon": -124.47409421426832, "alt_km": 768.6532100720879, "timestamp": "2025-12-12T03:50:52.814785+00:00", "meta": {"OBJECT_NAME": "COSMOS 2251 DEB", "OBJECT_ID": "1993-036ANM", "EPOCH": "2025-12-11T14:49:41.257632", "MEAN_MOTION": 13.40818919, "ECCENTRICITY": 0.04570406, "INCLINATION": 73.8724, "RA_OF_ASC_NODE": 57.8087, "ARG_OF_PERICENTER": 168.1759, "MEAN_ANOMALY": 268.2989, "EPHEMERIS_TYPE": 0, "CLASSIFICATION_TYPE": "U", "NORAD_CAT_ID": 35646, "ELEMENT_SET_NO": 999, "REV_AT_EPOCH": 81843, "BSTAR": 0.00139883, "MEAN_MOTION_DOT": 1.406e-05, "MEAN_MOTION_DDOT": 0}, "tle": {"line1": "1 35646U 93036ANM 25345.61783863  .00001406  00000+0  13988-2 0  9997", "line2": "2 35646  73.8724  57.8087 0457040 168.1759 268.2989 13.40818919818431"}}, "geometry": {"type": "Point", "coordinates": [-124.47409421426832, 4.903535360592659]}}, {"type": "Feature", "properties": {"norad_id": 35647, "name": "COSMOS 2251 DEB", "group": "cosmos-2251-debris", "lat": 65.7696980694571, "lon": 76.10799762002183, "alt_km": 730.4553615921513, "timestamp": "2025-12-12T03:50:52.814795+00:00", "meta": {"OBJECT_NAME": "COSMOS 2251 DEB", "OBJECT_ID": "1993-036ANN", "EPOCH": "2025-12-10T14:45:43.130592", "MEAN_MOTION": 14.43615239, "ECCENTRICITY": 0.0045496, "INCLINATION": 74.0232, "RA_OF_ASC_NODE": 298.5182, "ARG_OF_PERICENTER": 38.1034, "MEAN_ANOMALY": 322.3325, "EPHEMERIS_TYPE": 0, "CLASSIFICATION_TYPE": "U", "NORAD_CAT_ID": 35647, "ELEMENT_SET_NO": 999, "REV_AT_EPOCH": 67633, "BSTAR": 0.001375, "MEAN_MOTION_DOT": 4.698e-05, "MEAN_MOTION_DDOT": 0}, "tle": {"line1": "1 35647U 93036ANN 25344.61508253  .00004698  00000+0  13750-2 0  9998", "line2": "2 35647  74.0232 298.5182 0045496  38.1034 322.3325 14.43615239676330"}}, "geometry": {"type": "Point", "coordinates": [76.10799762002183, 65.7696980694571]}}]}